[{"OBJECT_NAME":"STARLINK-35234","OBJECT_ID":"2025-207K","EPOCH":"2026-03-09T17:16:40.118592","MEAN_MOTION":15.056629,"ECCENTRICITY":0.00028496,"INCLINATION":97.6007,"RA_OF_ASC_NODE":138.6563,"ARG_OF_PERICENTER":188.3663,"MEAN_ANOMALY":171.7517,"EPHEMERIS_TYPE":0,"CLASSIFICATION_TYPE":"U","NORAD_CAT_ID":65601,"ELEMENT_SET_NO":999,"REV_AT_EPOCH":2826,"BSTAR":7.6963005e-5,"MEAN_MOTION_DOT":1.05e-5,"MEAN_MOTION_DDOT":0},{"OBJECT_NAME":"RAAF M1","OBJECT_ID":"2018-099X","EPOCH":"2026-03-09T15:51:10.230048","MEAN_MOTION":15.07065376,"ECCENTRICITY":0.00134971,"INCLINATION":97.4534,"RA_OF_ASC_NODE":114.8325,"ARG_OF_PERICENTER":21.6261,"MEAN_ANOMALY":338.5534,"EPHEMERIS_TYPE":0,"CLASSIFICATION_TYPE":"U","NORAD_CAT_ID":43779,"ELEMENT_SET_NO":999,"REV_AT_EPOCH":39714,"BSTAR":0.00026511092,"MEAN_MOTION_DOT":3.923e-5,"MEAN_MOTION_DDOT":0}]
